FLOCK 1C-3              
1 40041U 14033AH  17249.30053771  .00000874  00000-0  99433-4 0  9990
2 40041  97.9211 161.8131 0014108  30.8806 329.3241 14.88742451174550
POLYITAN-1              
1 40042U 14033AJ  17249.21247532  .00000878  00000-0  10137-3 0  9998
2 40042  97.9142 160.1697 0015723  31.9914 328.2254 14.88117573174473
TIGRISAT                
1 40043U 14033AK  17248.88994924  .00000342  00000-0  58154-4 0  9993
2 40043  97.8452 130.9266 0061172  35.6361 324.8908 14.74009763172720
LEMUR-1                 
1 40044U 14033AL  17249.55966387  .00000335  00000-0  57299-4 0  9992
2 40044  97.8449 131.2959 0060295  34.6903 325.8215 14.73834522172816
AEROCUBE 6A             
1 40045U 14033AM  17248.87172001  .00000701  00000-0  10918-3 0  9992
2 40045  97.8579 132.2815 0059481  30.9676 329.5018 14.74883359172370
AEROCUBE 6B             
1 40046U 14033AN  17249.55012905  .00000617  00000-0  97129-4 0  9991
2 40046  97.8567 132.8671 0058359  28.3927 332.0442 14.74885575172852
UKUBE-1                 
1 40074U 14037F   17249.49991565  .00000488  00000-0  66386-4 0  9994
2 40074  98.3547   8.1082 0005422 137.7303 222.4333 14.83557507171237
BRITE-PL 2              
1 40119U 14049B   17249.45543395  .00000353  00000-0  48661-4 0  9994
2 40119  97.9342 334.9211 0017582 179.6500 180.4729 14.84169763165210
FIREBIRD 4              
1 40378U 15003C   17249.54158731  .00004228  00000-0  17923-3 0  9999
2 40378  99.1203  89.7879 0136449  92.6331 269.0524 15.15770003143338
GRIFEX                  
1 40379U 15003D   17249.52702365  .00003289  00000-0  14873-3 0  9993
2 40379  99.1230  87.2062 0142484 101.2347 260.4932 15.13235844143184
EXOCUBE                 
1 40380U 15003E   17248.79894191  .00002199  00000-0  10461-3 0  9990
2 40380  99.1278  84.9070 0146210 108.1887 253.5318 15.11692312142979
DEORBITSAIL             
1 40719U 15032E   17249.12775016  .00000715  00000-0  11075-3 0  9994
2 40719  97.9701 141.8348 0015069 241.7626 118.2063 14.76130713116264
TIANWANG 1C (TW-1C)     
1 40926U 15051B   17249.51798073  .00012744  00000-0  28239-3 0  9991
2 40926  97.2241 288.4756 0009757 227.6448 265.2226 15.43845853109460
TIANWANG 1B (TW-1B)     
1 40927U 15051C   17249.11838042  .00012468  00000-0  28708-3 0  9993
2 40927  97.2323 288.0578 0009448 241.1452 198.4327 15.42709354109343
TIANWANG 1A (TW-1A)     
1 40928U 15051D   17249.37756196  .00005288  00000-0  14980-3 0  9990
2 40928  97.2212 283.7310 0010586 266.7479 213.7890 15.36641494109163
LEMUR-2-JOEL            
1 40932U 15052C   17249.02141553  .00001057  00000-0  56215-4 0  9991
2 40932   6.0199  10.5315 0014648 320.7606  39.3141 14.77511921104988
LEMUR-2-CHRIS           
1 40933U 15052D   17249.08342554  .00001311  00000-0  90449-4 0  9992
2 40933   6.0115   8.9422 0014830 324.1567  35.7999 14.77654799105000
LEMUR-2-JEROEN          
1 40934U 15052E   17243.89144330  .00001037  00000-0  54853-4 0  9992
2 40934   6.0073  51.7322 0011441 239.3720 120.5279 14.77004021104147
LEMUR-2-PETER           
1 40935U 15052F   17249.39292690  .00001161  00000-0  72479-4 0  9999
2 40935   6.0083  14.0724 0012094 308.3412  51.5446 14.76773835104961
EXACTVIEW 9             
1 40936U 15052G   17248.81296265  .00000848  00000-0  29865-4 0  9990
2 40936   6.0051  21.0951 0010655 296.8617  63.0489 14.76277386104871
ATHENOXAT 1             
1 41168U 15077C   17249.51969907  .00003442  00000-0  15691-3 0  9997
2 41168  14.9883 295.1862 0012733  66.0636 157.1284 15.11809078 95362
GALASSIA                
1 41170U 15077E   17248.77905819  .00003269  00000-0  14485-3 0  9996
2 41170  14.9888 296.5105 0013526  72.0785 288.1009 15.12284581 95297
VELOX 2                 
1 41171U 15077F   17248.67639374  .00002368  00000-0  10194-3 0  9998
2 41171  14.9917 311.2953 0009195  24.4204 335.6551 15.10015060 95158
AGGIESAT 4              
1 41313U 98067HP  17249.51493354  .00039781  00000-0  23097-3 0  9991
2 41313  51.6389 304.0383 0003555  65.6583 294.4789 15.78100441 91754
HORYU-IV                
1 41340U 16012D   17248.47313770  .00001090  00000-0  77258-4 0  9999
2 41340  31.0059 318.3026 0014119 150.1547 209.9896 15.00671510 85084
OUFTI-1                 
1 41458U 16025C   17249.25015383  .00004206  00000-0  22542-3 0  9996
2 41458  98.1790 291.4600 0173892  19.2809 341.4890 15.03499270 74751
E-ST@R-II               
1 41459U 16025D   17249.34662541  .00003287  00000-0  17780-3 0  9997
2 41459  98.1779 291.4948 0174548  19.1768 341.5916 15.03307291 74768
AAUSAT 4                
1 41460U 16025E   17249.55985709  .00004849  00000-0  25938-3 0  9995
2 41460  98.1733 291.8747 0167064  16.5569 344.1008 15.04324303 74828
DIWATA-1                
1 41463U 98067HT  17249.49565160  .00014748  00000-0  16087-3 0  9996
2 41463  51.6423 334.6469 0001435  89.2504  24.9588 15.63624962 77517
NODES 2                 
1 41477U 98067HX  17249.37822081  .00410786  85892-4  67615-3 0  9997
2 41477  51.6201 296.6876 0007767  19.1198 341.0103 16.02526569 74982
NODES 1                 
1 41478U 98067HY  17249.40865790  .00324104  55434-4  61670-3 0  9998
2 41478  51.6242 297.7214 0007516  19.3307 340.7987 16.00079675 74976
FLOCK 2E'-1             
1 41479U 98067HZ  17249.46904549  .00041620  00000-0  30776-3 0  9998
2 41479  51.6348 321.0258 0000363   5.8810 354.2193 15.72519703 74636
FLOCK 2E'-3             
1 41480U 98067JA  17249.44027103  .00035380  00000-0  26652-3 0  9994
2 41480  51.6347 320.8551 0001418 343.7836  16.3117 15.72158363 74626
FLOCK 2E'-2             
1 41481U 98067JB  17249.40992039  .00033900  00000-0  24371-3 0  9992
2 41481  51.6321 319.0879 0000995  26.9778 333.1273 15.73282935 74634
FLOCK 2E'-4             
1 41482U 98067JC  17249.44145917  .00058959  00000-0  36783-3 0  9993
2 41482  51.6313 316.2611 0002898   4.6345 355.4681 15.76306941 74677
FLOCK 2E-1              
1 41483U 98067JD  17249.45831105  .00027965  00000-0  22551-3 0  9997
2 41483  51.6362 322.5365 0002559 356.9633   3.1349 15.70657772 74465
FLOCK 2E-2              
1 41484U 98067JE  17249.42311767  .00041877  00000-0  30730-3 0  9998
2 41484  51.6370 320.0668 0002843   5.3916 354.7113 15.72694905 74497
FLOCK 2E-3              
1 41486U 98067JG  17249.47248504  .00050327  00000-0  38981-3 0  9999
2 41486  51.6356 324.1177 0003075  10.3345 349.7716 15.71331156 74468
FLOCK 2E-4              
1 41487U 98067JH  17249.44662840  .00032873  00000-0  26329-3 0  9999
2 41487  51.6364 322.4208 0003587  32.6076 327.5142 15.70728512 74484
FLOCK 2E-6              
1 41563U 98067JM  17248.82306615  .00021051  00000-0  18426-3 0  9995
2 41563  51.6359 328.7596 0000514 135.3432 224.7606 15.68851563 72410
FLOCK 2E-5              
1 41564U 98067JN  17249.47540392  .00024175  00000-0  21102-3 0  9995
2 41564  51.6356 325.6259 0000183  95.5190 264.5828 15.68824622 72504
FLOCK 2E-7              
1 41565U 98067JP  17249.42365145  .00036964  00000-0  26924-3 0  9998
2 41565  51.6344 319.9697 0003909  49.0508 311.0828 15.72925491 72475
FLOCK 2E'-5             
1 41567U 98067JR  17249.51538899  .00024853  00000-0  22524-3 0  9994
2 41567  51.6370 327.4195 0003993  71.6146 288.5284 15.67879134 72352
FLOCK 2E'-6             
1 41568U 98067JS  17249.45501709  .00029783  00000-0  24528-3 0  9991
2 41568  51.6351 323.9538 0003537  65.5891 294.5475 15.70110683 72425
FLOCK 2E'-8             
1 41569U 98067JT  17249.44160755  .00034816  00000-0  25035-3 0  9990
2 41569  51.6343 319.3383 0002624  18.9732 341.1364 15.73262397 72368
FLOCK 2E'-7             
1 41570U 98067JU  17249.44460622  .00200554  00000-0  93732-3 0  9991
2 41570  51.6346 314.0896 0007308  16.5778 343.5462 15.82119252 72458
FLOCK 2E-9              
1 41571U 98067JV  17249.45937095  .00037937  00000-0  25993-3 0  9993
2 41571  51.6352 317.9698 0003272  47.0956 313.0317 15.74345753 72360
FLOCK 2E-10             
1 41572U 98067JW  17249.46109257  .00033994  00000-0  25607-3 0  9997
2 41572  51.6350 321.0022 0003923  53.7295 306.4066 15.72173622 72324
FLOCK 2E-12             
1 41573U 98067JX  17249.41446033  .00045674  00000-0  32406-3 0  9992
2 41573  51.6339 319.9153 0003407  56.5070 303.6254 15.73444962 72330
FLOCK 2E-11             
1 41574U 98067JY  17249.46482773  .00041714  00000-0  29614-3 0  9997
2 41574  51.6337 318.6954 0003856  67.0865 293.0540 15.73470086 72359
FLOCK 2E'-9             
1 41575U 98067JZ  17249.46237752  .00044037  00000-0  29324-3 0  9992
2 41575  51.6333 317.1448 0003208  77.4553 282.6805 15.74936494 72368
FLOCK 2E'-10            
1 41576U 98067KA  17249.46152759  .00049467  00000-0  34961-3 0  9991
2 41576  51.6355 319.5134 0003408  75.9457 284.1921 15.73500829 72239
FLOCK 2E'-11            
1 41577U 98067KB  17249.46564144  .00036447  00000-0  26820-3 0  9996
2 41577  51.6358 320.3056 0003963  62.1647 297.9753 15.72691321 72042
FLOCK 2E'-12            
1 41578U 98067KC  17249.44933598  .00044599  00000-0  29965-3 0  9998
2 41578  51.6321 318.5930 0004415  46.8086 313.3282 15.74718835 72066
FLOCK 2P-6              
1 41606U 16040H   17249.47212384  .00006705  00000-0  29110-3 0  9996
2 41606  97.4526 311.5288 0012014 143.2252 216.9811 15.22585888 67077
FLOCK 2P-11             
1 41608U 16040K   17249.34585575  .00006242  00000-0  27106-3 0  9998
2 41608  97.4522 311.3701 0011984 144.0117 216.1929 15.22608832 66994
FLOCK 2P-2              
1 41609U 16040L   17249.49413446  .00004912  00000-0  21418-3 0  9994
2 41609  97.4527 311.5075 0011960 143.2020 217.0040 15.22577740 66991
FLOCK 2P-9              
1 41610U 16040M   17249.50500509  .00003404  00000-0  14943-3 0  9995
2 41610  97.4522 311.4767 0012263 143.3004 216.9074 15.22570040 66873
FLOCK 2P-4              
1 41611U 16040N   17249.46671247  .00004441  00000-0  19398-3 0  9990
2 41611  97.4549 311.6680 0012188 151.7041 208.4860 15.22566872 67035
